STARLINK-2213           
1 47780U 21017BL  26068.65627556  .00020507  00000+0  70254-3 0  9995
2 47780  53.1589 203.9945 0001113  71.0225 289.0897 15.30203136277894
HAWK-11A                
1 62382U 24247F   26068.51231358  .00009457  00000+0  34106-3 0  9991
2 62382  44.9941 114.3328 0005466 327.3713  32.6832 15.28849427 67741
